[{"OBJECT_NAME":"STARLINK-33831","OBJECT_ID":"2025-076AC","EPOCH":"2026-03-09T23:08:41.908416","MEAN_MOTION":15.27600016,"ECCENTRICITY":5.98e-5,"INCLINATION":42.9982,"RA_OF_ASC_NODE":319.9752,"ARG_OF_PERICENTER":298.4586,"MEAN_ANOMALY":61.6205,"EPHEMERIS_TYPE":0,"CLASSIFICATION_TYPE":"U","NORAD_CAT_ID":63595,"ELEMENT_SET_NO":999,"REV_AT_EPOCH":5187,"BSTAR":0.00087469583,"MEAN_MOTION_DOT":0.000239,"MEAN_MOTION_DDOT":0},{"OBJECT_NAME":"COSMOS 252 DEB","OBJECT_ID":"1968-097CF","EPOCH":"2026-03-09T12:03:06.881472","MEAN_MOTION":13.89760968,"ECCENTRICITY":0.06306282,"INCLINATION":62.7318,"RA_OF_ASC_NODE":125.8805,"ARG_OF_PERICENTER":159.9223,"MEAN_ANOMALY":202.7883,"EPHEMERIS_TYPE":0,"CLASSIFICATION_TYPE":"U","NORAD_CAT_ID":4421,"ELEMENT_SET_NO":999,"REV_AT_EPOCH":54558,"BSTAR":0.0010172608,"MEAN_MOTION_DOT":6.493e-5,"MEAN_MOTION_DDOT":0}]
